NORAD_CAT_ID,OBJECT_NAME,OBJECT_TYPE,EPOCH,MEAN_MOTION,ECCENTRICITY,INCLINATION,RA_OF_ASC_NODE,ARG_OF_PERICENTER,MEAN_ANOMALY,BSTAR,MEAN_MOTION_DOT,MEAN_MOTION_DDOT,TLE_LINE0,TLE_LINE1,TLE_LINE2,SEMIMAJOR_AXIS,PERIOD,APOGEE,PERIGEE,DECAYED
53824.0,STARLINK-4757,PAYLOAD,2023-12-05 15:04:10,15.08901556,0.0001671,53.2182,48.0677,92.1384,267.98,0.0017999,0.00028522,0.0,0 STARLINK-4757,1 53824U 22114G   23339.62789975  .00028522  00000-0  17999-2 0  9991,2 53824  53.2182  48.0677 0001671  92.1384 267.9800 15.08901556 67734,6917.692,95.434,540.713,538.401,0.0
53824.0,STARLINK-4757,PAYLOAD,2023-12-06 03:47:15,15.08853814,0.0001834,53.2184,45.6924,111.9233,248.1955,0.00025085,3.708e-05,0.0,0 STARLINK-4757,1 53824U 22114G   23340.15782014  .00003708  00000-0  25085-3 0  9993,2 53824  53.2184  45.6924 0001834 111.9233 248.1955 15.08853814 67812,6917.838,95.437,540.972,538.434,0.0
53824.0,STARLINK-4757,PAYLOAD,2023-12-06 10:08:48,15.08844483,0.0001776,53.2186,44.5012,111.2173,248.9009,0.00033427,5.037e-05,0.0,0 STARLINK-4757,1 53824U 22114G   23340.42278222  .00005037  00000-0  33427-3 0  9990,2 53824  53.2186  44.5012 0001776 111.2173 248.9009 15.08844483 67855,6917.867,95.437,540.96,538.503,0.0
53824.0,STARLINK-4757,PAYLOAD,2023-12-07 13:10:22,15.08834916,0.0001536,53.2179,39.4483,97.78,262.3366,0.00027613,4.109e-05,0.0,0 STARLINK-4757,1 53824U 22114G   23341.54887124  .00004109  00000-0  27613-3 0  9990,2 53824  53.2179  39.4483 0001536  97.7800 262.3366 15.08834916 68476,6917.896,95.438,540.824,538.698,0.0
53824.0,STARLINK-4757,PAYLOAD,2023-12-08 13:01:09,15.08844724,0.0001574,53.2182,34.9845,91.0808,269.0365,0.00034821,5.259e-05,0.0,0 STARLINK-4757,1 53824U 22114G   23342.54247188  .00005259  00000-0  34821-3 0  9997,2 53824  53.2182  34.9845 0001574  91.0808 269.0365 15.08844724 68627,6917.866,95.437,540.82,538.642,0.0
53824.0,STARLINK-4757,PAYLOAD,2023-12-09 03:19:37,15.08840679,0.0001609,53.218,32.3109,91.0602,269.0575,0.00016083,2.273e-05,0.0,0 STARLINK-4757,1 53824U 22114G   23343.13863373  .00002273  00000-0  16083-3 0  9996,2 53824  53.2180  32.3109 0001609  91.0602 269.0575 15.08840679 68269,6917.878,95.438,540.856,538.63,0.0
53824.0,STARLINK-4757,PAYLOAD,2023-12-09 09:41:10,15.08842033,0.0001545,53.218,31.1207,96.7875,263.3293,0.00015866,2.238e-05,0.0,0 STARLINK-4757,1 53824U 22114G   23343.40359339  .00002238  00000-0  15866-3 0  9997,2 53824  53.2180  31.1207 0001545  96.7875 263.3293 15.08842033 68752,6917.874,95.437,540.808,538.67,0.0
53824.0,STARLINK-4757,PAYLOAD,2023-12-10 12:42:43,15.08843002,0.0001558,53.2174,26.0661,95.0145,265.1025,0.00013348,1.837e-05,0.0,0 STARLINK-4757,1 53824U 22114G   23344.52967350  .00001837  00000-0  13348-3 0  9996,2 53824  53.2174  26.0661 0001558  95.0145 265.1025 15.08843002 68927,6917.871,95.437,540.814,538.658,0.0
53824.0,STARLINK-4757,PAYLOAD,2023-12-11 09:22:44,15.08843212,0.0001573,53.2179,22.2002,99.2422,260.8748,9.9955e-05,1.303e-05,0.0,0 STARLINK-4757,1 53824U 22114G   23345.39079228  .00001303  00000-0  99955-4 0  9997,2 53824  53.2179  22.2002 0001573  99.2422 260.8748 15.08843212 69052,6917.871,95.437,540.824,538.647,0.0
53824.0,STARLINK-4757,PAYLOAD,2023-12-12 09:13:31,15.08842664,0.0001486,53.2191,17.7396,102.5238,257.592,0.00011807,1.592e-05,0.0,0 STARLINK-4757,1 53824U 22114G   23346.38439199  .00001592  00000-0  11807-3 0  9993,2 53824  53.2191  17.7396 0001486 102.5238 257.5920 15.08842664 68758,6917.872,95.437,540.765,538.709,0.0
53824.0,STARLINK-4757,PAYLOAD,2023-12-13 09:04:19,15.08824149,0.0001696,53.2193,13.2803,109.8857,250.2318,0.00021923,3.201e-05,0.0,0 STARLINK-4757,1 53824U 22114G   23347.37800160  .00003201  00000-0  21923-3 0  9992,2 53824  53.2193  13.2803 0001696 109.8857 250.2318 15.08824149 68900,6917.929,95.439,540.967,538.621,0.0
53824.0,STARLINK-4757,PAYLOAD,2023-12-14 08:55:06,15.08812985,0.0001663,53.219,8.8179,102.3285,257.7894,0.00051885,7.973e-05,0.0,0 STARLINK-4757,1 53824U 22114G   23348.37160352  .00007973  00000-0  51885-3 0  9995,2 53824  53.2190   8.8179 0001663 102.3285 257.7894 15.08812985 69503,6917.963,95.439,540.978,538.678,0.0
53824.0,STARLINK-4757,PAYLOAD,2023-12-15 08:45:52,15.08842904,0.0001588,53.2184,4.3565,76.8338,283.2831,0.00014605,2.037e-05,0.0,0 STARLINK-4757,1 53824U 22114G   23349.36519640  .00002037  00000-0  14605-3 0  9998,2 53824  53.2184   4.3565 0001588  76.8338 283.2831 15.08842904 69202,6917.872,95.437,540.835,538.638,0.0
53824.0,STARLINK-4757,PAYLOAD,2023-12-16 08:36:40,15.08840923,0.000184,53.2197,359.8978,66.7163,293.4023,5.9273e-05,6.55e-06,0.0,0 STARLINK-4757,1 53824U 22114G   23350.35880276  .00000655  00000-0  59273-4 0  9990,2 53824  53.2197 359.8978 0001840  66.7163 293.4023 15.08840923 69358,6917.878,95.437,541.015,538.47,0.0
53824.0,STARLINK-4757,PAYLOAD,2023-12-17 06:52:04,15.088393,0.0001932,53.2198,355.7357,66.2428,293.8767,4.1313e-05,3.69e-06,0.0,0 STARLINK-4757,1 53824U 22114G   23351.28616536  .00000369  00000-0  41313-4 0  9997,2 53824  53.2198 355.7357 0001932  66.2428 293.8767 15.08839300 69947,6917.883,95.438,541.084,538.411,0.0
53824.0,STARLINK-4757,PAYLOAD,2023-12-18 03:32:04,15.08851423,0.0001502,53.2189,351.8724,87.7921,272.3243,0.0001855,2.666e-05,0.0,0 STARLINK-4757,1 53824U 22114G   23352.14727195  .00002666  00000-0  18550-3 0  9995,2 53824  53.2189 351.8724 0001502  87.7921 272.3243 15.08851423 69627,6917.845,95.437,540.75,538.671,0.0
53824.0,STARLINK-4757,PAYLOAD,2023-12-18 06:42:50,15.0886958,0.0001711,53.2196,351.275,69.4431,290.6745,0.00051987,8.002e-05,0.0,0 STARLINK-4757,1 53824U 22114G   23352.27974795  .00008002  00000-0  51987-3 0  9990,2 53824  53.2196 351.2750 0001711  69.4431 290.6745 15.08869580 69648,6917.79,95.436,540.839,538.471,0.0
53824.0,STARLINK-4757,PAYLOAD,2023-12-19 03:22:52,15.08838405,0.000165,53.2209,347.4124,117.6518,242.4641,-3.9732e-05,-9.2e-06,0.0,0 STARLINK-4757,1 53824U 22114G   23353.14088128 -.00000920  00000-0 -39732-4 0  9991,2 53824  53.2209 347.4124 0001650 117.6518 242.4641 15.08838405 69775,6917.885,95.438,540.892,538.609,0.0
53824.0,STARLINK-4757,PAYLOAD,2023-12-19 06:33:38,15.08837433,0.0001573,53.2194,346.8199,118.6254,241.4897,-9.8204e-06,-4.44e-06,0.0,0 STARLINK-4757,1 53824U 22114G   23353.27336231 -.00000444  00000-0 -98204-5 0  9997,2 53824  53.2194 346.8199 0001573 118.6254 241.4897 15.08837433 70241,6917.888,95.438,540.841,538.665,0.0
53824.0,STARLINK-4757,PAYLOAD,2023-12-20 06:24:25,15.08837802,0.0001407,53.2194,342.3582,100.9374,259.1777,0.00011516,1.545e-05,0.0,0 STARLINK-4757,1 53824U 22114G   23354.26696530  .00001545  00000-0  11516-3 0  9998,2 53824  53.2194 342.3582 0001407 100.9374 259.1777 15.08837802 69949,6917.887,95.438,540.725,538.779,0.0
53824.0,STARLINK-4757,PAYLOAD,2023-12-21 04:39:49,15.08845018,0.0001343,53.2189,338.1934,104.2125,255.9016,0.0002915,4.355e-05,0.0,0 STARLINK-4757,1 53824U 22114G   23355.19432351  .00004355  00000-0  29150-3 0  9995,2 53824  53.2189 338.1934 0001343 104.2125 255.9016 15.08845018 70532,6917.865,95.437,540.659,538.801,0.0
53824.0,STARLINK-4757,PAYLOAD,2023-12-22 02:55:13,15.08836019,0.0001339,53.2196,334.0362,97.2817,262.8328,1.9419e-05,2.1e-07,0.0,0 STARLINK-4757,1 53824U 22114G   23356.12168884  .00000021  00000-0  19419-4 0  9990,2 53824  53.2196 334.0362 0001339  97.2817 262.8328 15.08836019 70224,6917.893,95.438,540.684,538.831,0.0
53824.0,STARLINK-4757,PAYLOAD,2023-12-22 06:06:00,15.08839628,0.0001557,53.2177,333.4323,80.4156,279.7012,6.112e-05,6.85e-06,0.0,0 STARLINK-4757,1 53824U 22114G   23356.25416888  .00000685  00000-0  61120-4 0  9996,2 53824  53.2177 333.4323 0001557  80.4156 279.7012 15.08839628 70692,6917.882,95.438,540.824,538.669,0.0
53824.0,STARLINK-4757,PAYLOAD,2023-12-23 07:32:11,15.08830219,0.0002078,53.218,328.6771,79.0591,281.0635,0.00090921,0.00014208,0.0,0 STARLINK-4757,1 53824U 22114G   23357.31402070  .00014208  00000-0  90921-3 0  9998,2 53824  53.2180 328.6771 0002078  79.0591 281.0635 15.08830219 70408,6917.91,95.438,541.213,538.338,0.0
53824.0,STARLINK-4757,PAYLOAD,2023-12-24 05:47:34,15.08842701,0.0001973,53.2177,324.5135,77.1269,282.9944,0.00020962,3.05e-05,0.0,0 STARLINK-4757,1 53824U 22114G   23358.24137484  .00003050  00000-0  20962-3 0  9996,2 53824  53.2177 324.5135 0001973  77.1269 282.9944 15.08842701 70993,6917.872,95.437,541.102,538.372,0.0
53824.0,STARLINK-4757,PAYLOAD,2023-12-24 21:41:26,15.0884554,0.0002066,53.2175,321.543,75.6019,284.5202,0.00020493,2.975e-05,0.0,0 STARLINK-4757,1 53824U 22114G   23358.90377529  .00002975  00000-0  20493-3 0  9999,2 53824  53.2175 321.5430 0002066  75.6019 284.5202 15.08845540 71097,6917.863,95.437,541.158,538.299,0.0
53824.0,STARLINK-4757,PAYLOAD,2023-12-25 04:02:58,15.08848452,0.000206,53.2175,320.3533,76.2748,283.8474,0.00026174,3.881e-05,0.0,0 STARLINK-4757,1 53824U 22114G   23359.16873408  .00003881  00000-0  26174-3 0  9994,2 53824  53.2175 320.3533 0002060  76.2748 283.8474 15.08848452 71131,6917.855,95.437,541.145,538.294,0.0
53824.0,STARLINK-4757,PAYLOAD,2023-12-26 03:53:45,15.08846622,0.0001819,53.2178,315.8946,97.3996,262.7203,0.00014243,1.98e-05,0.0,0 STARLINK-4757,1 53824U 22114G   23360.16233239  .00001980  00000-0  14243-3 0  9990,2 53824  53.2178 315.8946 0001819  97.3996 262.7203 15.08846622 70830,6917.86,95.437,540.984,538.467,0.0
53824.0,STARLINK-4757,PAYLOAD,2023-12-26 07:04:31,15.08850093,0.0001745,53.2175,315.2931,100.139,259.9799,0.0002237,3.275e-05,0.0,0 STARLINK-4757,1 53824U 22114G   23360.29481003  .00003275  00000-0  22370-3 0  9997,2 53824  53.2175 315.2931 0001745 100.1390 259.9799 15.08850093 71302,6917.85,95.437,540.922,538.507,0.0
53824.0,STARLINK-4757,PAYLOAD,2023-12-27 03:44:32,15.08843405,0.0001837,53.2181,311.4267,110.4648,249.6542,1.7873e-05,-4e-08,0.0,0 STARLINK-4757,1 53824U 22114G   23361.15593150 -.00000004  00000-0  17873-4 0  9991,2 53824  53.2181 311.4267 0001837 110.4648 249.6542 15.08843405 70985,6917.87,95.437,541.006,538.464,0.0
